[{"OBJECT_NAME":"BEIDOU-3 M27 (C49)","OBJECT_ID":"2024-168C","EPOCH":"2026-02-01T02:44:12.311232","MEAN_MOTION":1.8623001,"ECCENTRICITY":0.00027844,"INCLINATION":54.59,"RA_OF_ASC_NODE":306.9561,"ARG_OF_PERICENTER":4.47,"MEAN_ANOMALY":158.6058,"EPHEMERIS_TYPE":0,"CLASSIFICATION_TYPE":"U","NORAD_CAT_ID":61187,"ELEMENT_SET_NO":999,"REV_AT_EPOCH":672,"BSTAR":0,"MEAN_MOTION_DOT":-6.5e-7,"MEAN_MOTION_DDOT":0}]
