BEIDOU-3 M27 (C49)      
1 61187U 24168C   26032.11403138 -.00000065  00000+0  00000+0 0  9998
2 61187  54.5900 306.9561 0002784   4.4700 158.6058  1.86230010  6723
